{
  "norad_id": 62325,
  "name": "HULIANWANG DIGUI-03",
  "history": [
    {
      "epoch": "2026-03-28T21:49:35.900256Z",
      "apogee_km": 1169.4657092378084,
      "perigee_km": 1166.378616434291,
      "latitude_deg": 8.858191953019534e-05,
      "longitude_deg": -143.50030315569663,
      "height_km": 1170.4611223785623,
      "semi_major_axis_km": 7546.059162836049,
      "eccentricity": 0.00020455,
      "inclination_deg": 86.5038,
      "raan_deg": 10.2224,
      "arg_perigee_deg": 76.8151,
      "mean_anomaly_deg": 283.3212,
      "mean_motion_rev_day": 13.24410006
    },
    {
      "epoch": "2026-03-29T05:04:45.398784Z",
      "apogee_km": 1169.4637087462188,
      "perigee_km": 1166.3803890188456,
      "latitude_deg": 1.6822207624569365e-05,
      "longitude_deg": 107.31046007600573,
      "height_km": 1170.461269722441,
      "semi_major_axis_km": 7546.059048882532,
      "eccentricity": 0.0002043,
      "inclination_deg": 86.5039,
      "raan_deg": 10.1206,
      "arg_perigee_deg": 76.808,
      "mean_anomaly_deg": 283.3282,
      "mean_motion_rev_day": 13.24410036
    },
    {
      "epoch": "2026-03-30T04:39:01.261440Z",
      "apogee_km": 1169.4621670449023,
      "perigee_km": 1166.3812621928982,
      "latitude_deg": -3.654421134857594e-05,
      "longitude_deg": 112.44533348766143,
      "height_km": 1170.4532307968643,
      "semi_major_axis_km": 7546.0587146189,
      "eccentricity": 0.00020414,
      "inclination_deg": 86.5039,
      "raan_deg": 9.7896,
      "arg_perigee_deg": 76.5024,
      "mean_anomaly_deg": 283.6337,
      "mean_motion_rev_day": 13.24410124
    },
    {
      "epoch": "2026-03-30T13:42:58.127040Z",
      "apogee_km": 1169.4631882522217,
      "perigee_km": 1166.3798687374774,
      "latitude_deg": 5.781223995709685e-05,
      "longitude_deg": -24.04121935235522,
      "height_km": 1170.449547604059,
      "semi_major_axis_km": 7546.058528494849,
      "eccentricity": 0.0002043,
      "inclination_deg": 86.5039,
      "raan_deg": 9.6623,
      "arg_perigee_deg": 76.3801,
      "mean_anomaly_deg": 283.7561,
      "mean_motion_rev_day": 13.24410173
    },
    {
      "epoch": "2026-03-30T22:46:54.986592Z",
      "apogee_km": 1169.460768142545,
      "perigee_km": 1166.3818254362877,
      "latitude_deg": 6.718600779513451e-06,
      "longitude_deg": -160.52775576441465,
      "height_km": 1170.4453276335944,
      "semi_major_axis_km": 7546.058296789416,
      "eccentricity": 0.00020401,
      "inclination_deg": 86.5039,
      "raan_deg": 9.535,
      "arg_perigee_deg": 76.207,
      "mean_anomaly_deg": 283.9291,
      "mean_motion_rev_day": 13.24410234
    },
    {
      "epoch": "2026-03-31T20:32:23.451072Z",
      "apogee_km": 1169.4567258924662,
      "perigee_km": 1166.3854802445176,
      "latitude_deg": 9.406946863670686e-05,
      "longitude_deg": -128.09531667554592,
      "height_km": 1170.4380776023693,
      "semi_major_axis_km": 7546.058103068492,
      "eccentricity": 0.0002035,
      "inclination_deg": 86.5039,
      "raan_deg": 9.2296,
      "arg_perigee_deg": 75.9005,
      "mean_anomaly_deg": 284.2356,
      "mean_motion_rev_day": 13.24410285
    },
    {
      "epoch": "2026-04-01T20:06:39.284352Z",
      "apogee_km": 1169.4519893005063,
      "perigee_km": 1166.38979900706,
      "latitude_deg": -1.1726881704394853e-05,
      "longitude_deg": -122.96032310455396,
      "height_km": 1170.4317842495393,
      "semi_major_axis_km": 7546.057894153783,
      "eccentricity": 0.0002029,
      "inclination_deg": 86.504,
      "raan_deg": 8.8986,
      "arg_perigee_deg": 75.6218,
      "mean_anomaly_deg": 284.5141,
      "mean_motion_rev_day": 13.2441034
    },
    {
      "epoch": "2026-04-02T19:40:55.116768Z",
      "apogee_km": 1169.4504330595264,
      "perigee_km": 1166.3897523027345,
      "latitude_deg": 4.740156644060133e-05,
      "longitude_deg": -117.8252163622549,
      "height_km": 1170.4191680407291,
      "semi_major_axis_km": 7546.05709268113,
      "eccentricity": 0.0002028,
      "inclination_deg": 86.504,
      "raan_deg": 8.5677,
      "arg_perigee_deg": 75.1575,
      "mean_anomaly_deg": 284.9784,
      "mean_motion_rev_day": 13.24410551
    },
    {
      "epoch": "2026-04-02T21:29:42.490752Z",
      "apogee_km": 1169.4502707407291,
      "perigee_km": 1166.3898918308432,
      "latitude_deg": -4.554318498009428e-05,
      "longitude_deg": -145.1225773711388,
      "height_km": 1170.417920048864,
      "semi_major_axis_km": 7546.057081285786,
      "eccentricity": 0.00020278,
      "inclination_deg": 86.504,
      "raan_deg": 8.5422,
      "arg_perigee_deg": 75.1075,
      "mean_anomaly_deg": 285.0283,
      "mean_motion_rev_day": 13.24410554
    },
    {
      "epoch": "2026-04-03T19:15:10.950912Z",
      "apogee_km": 1169.4431135173054,
      "perigee_km": 1166.3960158764803,
      "latitude_deg": -1.4624639617337655e-05,
      "longitude_deg": -112.69022491078297,
      "height_km": 1170.4109999252792,
      "semi_major_axis_km": 7546.056564696893,
      "eccentricity": 0.0002019,
      "inclination_deg": 86.504,
      "raan_deg": 8.2367,
      "arg_perigee_deg": 74.7911,
      "mean_anomaly_deg": 285.3446,
      "mean_motion_rev_day": 13.2441069
    },
    {
      "epoch": "2026-04-04T20:38:14.146080Z",
      "apogee_km": 1169.437679309246,
      "perigee_km": 1166.401146208752,
      "latitude_deg": 1.9097578279954348e-05,
      "longitude_deg": -134.85242980135254,
      "height_km": 1170.398950352359,
      "semi_major_axis_km": 7546.056412758999,
      "eccentricity": 0.0002012,
      "inclination_deg": 86.5039,
      "raan_deg": 7.8803,
      "arg_perigee_deg": 74.2705,
      "mean_anomaly_deg": 285.8651,
      "mean_motion_rev_day": 13.2441073
    },
    {
      "epoch": "2026-04-05T12:57:20.472192Z",
      "apogee_km": 1169.4339199069964,
      "perigee_km": 1166.4044801849268,
      "latitude_deg": -3.461130405150361e-05,
      "longitude_deg": -20.528066822891002,
      "height_km": 1170.4009508396819,
      "semi_major_axis_km": 7546.056200045961,
      "eccentricity": 0.00020073,
      "inclination_deg": 86.5038,
      "raan_deg": 7.6512,
      "arg_perigee_deg": 74.3191,
      "mean_anomaly_deg": 285.8164,
      "mean_motion_rev_day": 13.24410786
    },
    {
      "epoch": "2026-04-05T20:12:29.945664Z",
      "apogee_km": 1169.4314069132024,
      "perigee_km": 1166.4069475973583,
      "latitude_deg": 8.97678442065848e-06,
      "longitude_deg": -129.71719250732042,
      "height_km": 1170.3999672404184,
      "semi_major_axis_km": 7546.05617725528,
      "eccentricity": 0.0002004,
      "inclination_deg": 86.5038,
      "raan_deg": 7.5494,
      "arg_perigee_deg": 74.2548,
      "mean_anomaly_deg": 285.8807,
      "mean_motion_rev_day": 13.24410792
    },
    {
      "epoch": "2026-04-06T05:16:26.784480Z",
      "apogee_km": 1169.424639439414,
      "perigee_km": 1166.4130085600555,
      "latitude_deg": 2.08420950862509e-07,
      "longitude_deg": 93.7963590250556,
      "height_km": 1170.4019348043732,
      "semi_major_axis_km": 7546.0558239997345,
      "eccentricity": 0.00019955,
      "inclination_deg": 86.5038,
      "raan_deg": 7.4221,
      "arg_perigee_deg": 74.2771,
      "mean_anomaly_deg": 285.8583,
      "mean_motion_rev_day": 13.24410885
    },
    {
      "epoch": "2026-04-07T13:54:39.415104Z",
      "apogee_km": 1169.4200696260305,
      "perigee_km": 1166.41628690177,
      "latitude_deg": -2.0331943082074e-06,
      "longitude_deg": -37.554919813949326,
      "height_km": 1170.3930783387962,
      "semi_major_axis_km": 7546.0551782638995,
      "eccentricity": 0.00019903,
      "inclination_deg": 86.5037,
      "raan_deg": 6.9638,
      "arg_perigee_deg": 73.9087,
      "mean_anomaly_deg": 286.2266,
      "mean_motion_rev_day": 13.24411055
    },
    {
      "epoch": "2026-04-07T19:21:01.518048Z",
      "apogee_km": 1169.4181858645106,
      "perigee_km": 1166.4178743845332,
      "latitude_deg": 3.190012731115862e-05,
      "longitude_deg": -119.44670523566967,
      "height_km": 1170.3914869057407,
      "semi_major_axis_km": 7546.055030124522,
      "eccentricity": 0.0001988,
      "inclination_deg": 86.5037,
      "raan_deg": 6.8875,
      "arg_perigee_deg": 73.8322,
      "mean_anomaly_deg": 286.3031,
      "mean_motion_rev_day": 13.24411094
    },
    {
      "epoch": "2026-04-08T15:17:42.570528Z",
      "apogee_km": 1169.4080492621597,
      "perigee_km": 1166.4273576542937,
      "latitude_deg": 4.4049660793246647e-07,
      "longitude_deg": -59.71696291889919,
      "height_km": 1170.3881672905195,
      "semi_major_axis_km": 7546.054703458226,
      "eccentricity": 0.0001975,
      "inclination_deg": 86.5037,
      "raan_deg": 6.6074,
      "arg_perigee_deg": 73.6017,
      "mean_anomaly_deg": 286.5334,
      "mean_motion_rev_day": 13.2441118
    },
    {
      "epoch": "2026-04-09T20:18:20.467872Z",
      "apogee_km": 1169.4078896959645,
      "perigee_km": 1166.4271981511138,
      "latitude_deg": 5.208003545907827e-05,
      "longitude_deg": -136.47358897103135,
      "height_km": 1170.3767262300692,
      "semi_major_axis_km": 7546.054543923538,
      "eccentricity": 0.0001975,
      "inclination_deg": 86.5036,
      "raan_deg": 6.2001,
      "arg_perigee_deg": 73.1492,
      "mean_anomaly_deg": 286.9859,
      "mean_motion_rev_day": 13.24411222
    },
    {
      "epoch": "2026-04-10T07:11:04.670304Z",
      "apogee_km": 1169.4062312698034,
      "perigee_km": 1166.4282564230125,
      "latitude_deg": 6.893251986515335e-05,
      "longitude_deg": 59.74265169116453,
      "height_km": 1170.3774569900527,
      "semi_major_axis_km": 7546.054243846407,
      "eccentricity": 0.00019732,
      "inclination_deg": 86.5036,
      "raan_deg": 6.0473,
      "arg_perigee_deg": 73.1748,
      "mean_anomaly_deg": 286.9603,
      "mean_motion_rev_day": 13.24411301
    }
  ]
}